start=new Date('2022-11-23T00:00:00.000Z').valueOf();
sats=[{"OBJECT_NAME":"STARLINK-5282","LAUNCH_DATE":"2022-10-28","TLE_LINE1":"1 54169U 22141N   22326.91667824  .00039657  00000-0  28626-3 0  9990","COUNTRY_CODE":"US","BSTAR":"0.00028626000000","MEAN_MOTION_DDOT":"0.0000000000000","REV_AT_EPOCH":"130","INCLINATION":"53.2181","MEAN_ANOMALY":"95.5222","PERIOD":"91.536","CENTER_NAME":"EARTH","SEMIMAJOR_AXIS":"6728.051","PERIAPSIS":"347.710","DECAY_DATE":null,"RCS_SIZE":"LARGE","MEAN_MOTION":"15.73145440","EPOCH":"2022-11-22T22:00:00.999936","OBJECT_ID":"2022-141N","TLE_LINE2":"2 54169  53.2181  15.8767 0003279   5.2925  95.5222 15.73145440  1308","EPHEMERIS_TYPE":"0","ARG_OF_PERICENTER":"5.2925","TIME_SYSTEM":"UTC","MEAN_ELEMENT_THEORY":"SGP4","ECCENTRICITY":"0.00032790","MEAN_MOTION_DOT":"0.00039657","NORAD_CAT_ID":"54169","RA_OF_ASC_NODE":"15.8767","OBJECT_TYPE":"PAYLOAD","GP_ID":"218506339","ELEMENT_SET_NO":"999","APOAPSIS":"352.122","REF_FRAME":"TEME","CLASSIFICATION_TYPE":"U","SITE":"AFWTR","FILE":"3667517"},{"FILE":"3667517","CLASSIFICATION_TYPE":"U","SITE":"AFWTR","REF_FRAME":"TEME","RA_OF_ASC_NODE":"15.8718","NORAD_CAT_ID":"54170","APOAPSIS":"352.178","GP_ID":"218506832","ELEMENT_SET_NO":"999","OBJECT_TYPE":"PAYLOAD","MEAN_ELEMENT_THEORY":"SGP4","ECCENTRICITY":"0.00033260","TIME_SYSTEM":"UTC","MEAN_MOTION_DOT":"0.00062145","EPHEMERIS_TYPE":"0","TLE_LINE2":"2 54170  53.2177  15.8718 0003326   5.8812  98.4546 15.73136925  1304","OBJECT_ID":"2022-141P","ARG_OF_PERICENTER":"5.8812","RCS_SIZE":"LARGE","MEAN_MOTION":"15.73136925","EPOCH":"2022-11-22T22:00:00.999936","CENTER_NAME":"EARTH","PERIOD":"91.537","MEAN_ANOMALY":"98.4546","MEAN_MOTION_DDOT":"0.0000000000000","BSTAR":"0.00044504000000","REV_AT_EPOCH":"130","INCLINATION":"53.2177","DECAY_DATE":null,"PERIAPSIS":"347.702","SEMIMAJOR_AXIS":"6728.075","TLE_LINE1":"1 54170U 22141P   22326.91667824  .00062145  00000-0  44504-3 0  9993","OBJECT_NAME":"STARLINK-5155","LAUNCH_DATE":"2022-10-28","COUNTRY_CODE":"US"},{"COUNTRY_CODE":"US","LAUNCH_DATE":"2022-10-28","OBJECT_NAME":"STARLINK-5229","TLE_LINE1":"1 54171U 22141Q   22326.91667824 -.00039277  00000-0 -27663-3 0  9993","SEMIMAJOR_AXIS":"6727.893","PERIAPSIS":"347.648","DECAY_DATE":null,"MEAN_MOTION_DDOT":"0.0000000000000","BSTAR":"-0.00027663000000","REV_AT_EPOCH":"130","INCLINATION":"53.2187","PERIOD":"91.533","MEAN_ANOMALY":"90.6427","CENTER_NAME":"EARTH","EPOCH":"2022-11-22T22:00:00.999936","RCS_SIZE":"LARGE","MEAN_MOTION":"15.73200590","ARG_OF_PERICENTER":"9.5618","OBJECT_ID":"2022-141Q","TLE_LINE2":"2 54171  53.2187  15.8785 0003137   9.5618  90.6427 15.73200590  1307","EPHEMERIS_TYPE":"0","MEAN_MOTION_DOT":"-0.00039277","TIME_SYSTEM":"UTC","ECCENTRICITY":"0.00031370","MEAN_ELEMENT_THEORY":"SGP4","OBJECT_TYPE":"PAYLOAD","GP_ID":"218506669","ELEMENT_SET_NO":"999","APOAPSIS":"351.869","NORAD_CAT_ID":"54171","RA_OF_ASC_NODE":"15.8785","REF_FRAME":"TEME","SITE":"AFWTR","CLASSIFICATION_TYPE":"U","FILE":"3667517"},{"EPOCH":"2022-11-22T22:00:00.999936","MEAN_MOTION":"15.73203746","RCS_SIZE":"LARGE","COUNTRY_CODE":"US","TLE_LINE1":"1 54172U 22141R   22326.91667824 -.00047997  00000-0 -33930-3 0  9996","OBJECT_NAME":"STARLINK-5117","LAUNCH_DATE":"2022-10-28","DECAY_DATE":null,"PERIAPSIS":"347.358","SEMIMAJOR_AXIS":"6727.884","CENTER_NAME":"EARTH","PERIOD":"91.533","MEAN_ANOMALY":"101.4974","REV_AT_EPOCH":"130","MEAN_MOTION_DDOT":"0.0000000000000","BSTAR":"-0.00033930000000","INCLINATION":"53.2178","APOAPSIS":"352.141","ELEMENT_SET_NO":"999","GP_ID":"218505848","OBJECT_TYPE":"PAYLOAD","RA_OF_ASC_NODE":"15.8650","NORAD_CAT_ID":"54172","FILE":"3667517","SITE":"AFWTR","CLASSIFICATION_TYPE":"U","REF_FRAME":"TEME","ARG_OF_PERICENTER":"4.0711","EPHEMERIS_TYPE":"0","TLE_LINE2":"2 54172  53.2178  15.8650 0003555   4.0711 101.4974 15.73203746  1301","OBJECT_ID":"2022-141R","MEAN_MOTION_DOT":"-0.00047997","MEAN_ELEMENT_THEORY":"SGP4","ECCENTRICITY":"0.00035550","TIME_SYSTEM":"UTC"},{"APOAPSIS":"351.873","OBJECT_TYPE":"PAYLOAD","ELEMENT_SET_NO":"999","GP_ID":"218506012","RA_OF_ASC_NODE":"15.8713","NORAD_CAT_ID":"54173","CLASSIFICATION_TYPE":"U","SITE":"AFWTR","FILE":"3667517","REF_FRAME":"TEME","ARG_OF_PERICENTER":"7.0988","EPHEMERIS_TYPE":"0","OBJECT_ID":"2022-141S","TLE_LINE2":"2 54173  53.2180  15.8713 0003184   7.0988  96.0647 15.73210188  1306","MEAN_MOTION_DOT":"-0.00039638","MEAN_ELEMENT_THEORY":"SGP4","ECCENTRICITY":"0.00031840","TIME_SYSTEM":"UTC","EPOCH":"2022-11-22T22:00:00.999936","RCS_SIZE":"LARGE","MEAN_MOTION":"15.73210188","COUNTRY_CODE":"US","OBJECT_NAME":"STARLINK-5242","LAUNCH_DATE":"2022-10-28","TLE_LINE1":"1 54173U 22141S   22326.91667824 -.00039638  00000-0 -27911-3 0  9992","DECAY_DATE":null,"SEMIMAJOR_AXIS":"6727.866","PERIAPSIS":"347.589","PERIOD":"91.533","MEAN_ANOMALY":"96.0647","CENTER_NAME":"EARTH","BSTAR":"-0.00027911000000","MEAN_MOTION_DDOT":"0.0000000000000","INCLINATION":"53.2180","REV_AT_EPOCH":"130"},{"REF_FRAME":"TEME","FILE":"3667517","SITE":"AFWTR","CLASSIFICATION_TYPE":"U","NORAD_CAT_ID":"54174","RA_OF_ASC_NODE":"15.0744","ELEMENT_SET_NO":"999","GP_ID":"218506505","OBJECT_TYPE":"PAYLOAD","APOAPSIS":"351.376","TIME_SYSTEM":"UTC","ECCENTRICITY":"0.00022970","MEAN_ELEMENT_THEORY":"SGP4","MEAN_MOTION_DOT":"0.00013686","TLE_LINE2":"2 54174  53.2167  15.0744 0002297  22.2123 107.6920 15.73175152  1306","OBJECT_ID":"2022-141T","EPHEMERIS_TYPE":"0","ARG_OF_PERICENTER":"22.2123","RCS_SIZE":"LARGE","MEAN_MOTION":"15.73175152","EPOCH":"2022-11-22T22:00:00.999936","BSTAR":"0.00010188000000","MEAN_MOTION_DDOT":"0.0000000000000","INCLINATION":"53.2167","REV_AT_EPOCH":"130","CENTER_NAME":"EARTH","PERIOD":"91.535","MEAN_ANOMALY":"107.6920","PERIAPSIS":"348.286","SEMIMAJOR_AXIS":"6727.966","DECAY_DATE":null,"TLE_LINE1":"1 54174U 22141T   22326.91667824  .00013686  00000-0  10188-3 0  9994","LAUNCH_DATE":"2022-10-28","OBJECT_NAME":"STARLINK-5248","COUNTRY_CODE":"US"},{"MEAN_MOTION":"15.73193238","RCS_SIZE":"LARGE","EPOCH":"2022-11-22T22:00:00.999936","REV_AT_EPOCH":"130","MEAN_MOTION_DDOT":"0.0000000000000","BSTAR":"-0.00035884000000","INCLINATION":"53.2184","CENTER_NAME":"EARTH","PERIOD":"91.534","MEAN_ANOMALY":"98.0647","PERIAPSIS":"347.452","SEMIMAJOR_AXIS":"6727.914","DECAY_DATE":null,"TLE_LINE1":"1 54175U 22141U   22326.91667824 -.00050685  00000-0 -35884-3 0  9997","LAUNCH_DATE":"2022-10-28","OBJECT_NAME":"STARLINK-5256","COUNTRY_CODE":"US","REF_FRAME":"TEME","FILE":"3667517","SITE":"AFWTR","CLASSIFICATION_TYPE":"U","NORAD_CAT_ID":"54175","RA_OF_ASC_NODE":"15.8679","GP_ID":"218506996","ELEMENT_SET_NO":"999","OBJECT_TYPE":"PAYLOAD","APOAPSIS":"352.107","TIME_SYSTEM":"UTC","ECCENTRICITY":"0.00034600","MEAN_ELEMENT_THEORY":"SGP4","MEAN_MOTION_DOT":"-0.00050685","TLE_LINE2":"2 54175  53.2184  15.8679 0003460   6.9311  98.0647 15.73193238  1306","OBJECT_ID":"2022-141U","EPHEMERIS_TYPE":"0","ARG_OF_PERICENTER":"6.9311"},{"EPOCH":"2022-11-22T22:00:00.999936","MEAN_MOTION":"15.73154887","RCS_SIZE":"LARGE","COUNTRY_CODE":"US","TLE_LINE1":"1 54176U 22141V   22326.91667824  .00040044  00000-0  28887-3 0  9999","LAUNCH_DATE":"2022-10-28","OBJECT_NAME":"STARLINK-5154","DECAY_DATE":null,"PERIAPSIS":"347.529","SEMIMAJOR_AXIS":"6728.024","CENTER_NAME":"EARTH","MEAN_ANOMALY":"103.2508","PERIOD":"91.536","MEAN_MOTION_DDOT":"0.0000000000000","BSTAR":"0.00028887000000","REV_AT_EPOCH":"130","INCLINATION":"53.2176","APOAPSIS":"352.248","GP_ID":"218506176","ELEMENT_SET_NO":"999","OBJECT_TYPE":"PAYLOAD","RA_OF_ASC_NODE":"15.8595","NORAD_CAT_ID":"54176","FILE":"3667517","SITE":"AFWTR","CLASSIFICATION_TYPE":"U","REF_FRAME":"TEME","ARG_OF_PERICENTER":"4.7158","EPHEMERIS_TYPE":"0","TLE_LINE2":"2 54176  53.2176  15.8595 0003507   4.7158 103.2508 15.73154887  1304","OBJECT_ID":"2022-141V","MEAN_MOTION_DOT":"0.00040044","ECCENTRICITY":"0.00035070","MEAN_ELEMENT_THEORY":"SGP4","TIME_SYSTEM":"UTC"},{"NORAD_CAT_ID":"54177","RA_OF_ASC_NODE":"15.8670","ELEMENT_SET_NO":"999","GP_ID":"218506340","OBJECT_TYPE":"PAYLOAD","APOAPSIS":"352.019","REF_FRAME":"TEME","FILE":"3667517","SITE":"AFWTR","CLASSIFICATION_TYPE":"U","TLE_LINE2":"2 54177  53.2190  15.8670 0003288  11.3360  94.8505 15.73183772  1307","OBJECT_ID":"2022-141W","EPHEMERIS_TYPE":"0","ARG_OF_PERICENTER":"11.3360","TIME_SYSTEM":"UTC","MEAN_ELEMENT_THEORY":"SGP4","ECCENTRICITY":"0.00032880","MEAN_MOTION_DOT":"-0.00041235","MEAN_MOTION":"15.73183772","RCS_SIZE":"LARGE","EPOCH":"2022-11-22T22:00:00.999936","TLE_LINE1":"1 54177U 22141W   22326.91667824 -.00041235  00000-0 -29091-3 0  9993","OBJECT_NAME":"STARLINK-5186","LAUNCH_DATE":"2022-10-28","COUNTRY_CODE":"US","REV_AT_EPOCH":"130","MEAN_MOTION_DDOT":"0.0000000000000","BSTAR":"-0.00029091000000","INCLINATION":"53.2190","CENTER_NAME":"EARTH","PERIOD":"91.534","MEAN_ANOMALY":"94.8505","PERIAPSIS":"347.594","SEMIMAJOR_AXIS":"6727.941","DECAY_DATE":null},{"FILE":"3667517","CLASSIFICATION_TYPE":"U","SITE":"AFWTR","REF_FRAME":"TEME","RA_OF_ASC_NODE":"15.8581","NORAD_CAT_ID":"54178","APOAPSIS":"352.165","GP_ID":"218506833","ELEMENT_SET_NO":"999","OBJECT_TYPE":"PAYLOAD","MEAN_ELEMENT_THEORY":"SGP4","ECCENTRICITY":"0.00033820","TIME_SYSTEM":"UTC","MEAN_MOTION_DOT":"0.00044516","EPHEMERIS_TYPE":"0","TLE_LINE2":"2 54178  53.2176  15.8581 0003382   3.6855 104.8672 15.73154580  1303","OBJECT_ID":"2022-141X","ARG_OF_PERICENTER":"3.6855","RCS_SIZE":"LARGE","MEAN_MOTION":"15.73154580","EPOCH":"2022-11-22T22:00:00.999936","CENTER_NAME":"EARTH","MEAN_ANOMALY":"104.8672","PERIOD":"91.536","REV_AT_EPOCH":"130","MEAN_MOTION_DDOT":"0.0000000000000","BSTAR":"0.00032047000000","INCLINATION":"53.2176","DECAY_DATE":null,"PERIAPSIS":"347.614","SEMIMAJOR_AXIS":"6728.025","TLE_LINE1":"1 54178U 22141X   22326.91667824  .00044516  00000-0  32047-3 0  9992","OBJECT_NAME":"STARLINK-5164","LAUNCH_DATE":"2022-10-28","COUNTRY_CODE":"US"}];
